{
    "links": {
        "self": "http://www.neowsapp.com/rest/v1/neo/3789670?api_key=iIulBulltgU6a56xZRHN4H3l9WmuAYTsLGpBGhQ2"
    },
    "id": "3789670",
    "neo_reference_id": "3789670",
    "name": "(2017 WV14)",
    "designation": "2017 WV14",
    "nasa_jpl_url": "http://ssd.jpl.nasa.gov/sbdb.cgi?sstr=3789670",
    "absolute_magnitude_h": 24.9,
    "estimated_diameter": {
        "kilometers": {
            "estimated_diameter_min": 0.0278326768,
            "estimated_diameter_max": 0.0622357573
        },
        "meters": {
            "estimated_diameter_min": 27.8326768072,
            "estimated_diameter_max": 62.2357573367
        },
        "miles": {
            "estimated_diameter_min": 0.0172944182,
            "estimated_diameter_max": 0.0386714948
        },
        "feet": {
            "estimated_diameter_min": 91.3145593761,
            "estimated_diameter_max": 204.1855621004
        }
    },
    "is_potentially_hazardous_asteroid": false,
    "close_approach_data": [
        {
            "close_approach_date": "2017-12-14",
            "close_approach_date_full": "2017-Dec-14 12:37",
            "epoch_date_close_approach": 1513255020000,
            "relative_velocity": {
                "kilometers_per_second": "8.2123537512",
                "kilometers_per_hour": "29564.4735043836",
                "miles_per_hour": "18370.2141060988"
            },
            "miss_distance": {
                "astronomical": "0.0920244358",
                "lunar": "35.7975055262",
                "kilometers": "13766659.583631746",
                "miles": "8554205.6014842548"
            },
            "orbiting_body": "Earth"
        }
    ],
    "orbital_data": {
        "orbit_id": "3",
        "orbit_determination_date": "2017-12-14 06:24:55",
        "first_observation_date": "2017-11-21",
        "last_observation_date": "2017-12-13",
        "data_arc_in_days": 22,
        "observations_used": 17,
        "orbit_uncertainty": "8",
        "minimum_orbit_intersection": ".0558256",
        "jupiter_tisserand_invariant": "3.142",
        "epoch_osculation": "2458080.5",
        "eccentricity": ".5982117182034395",
        "semi_major_axis": "2.584870550634784",
        "inclination": ".7787617757448533",
        "ascending_node_longitude": "246.4612259089617",
        "orbital_period": "1517.947058333943",
        "perihelion_distance": "1.038570697206079",
        "perihelion_argument": "214.8138746444809",
        "aphelion_distance": "4.131170404063489",
        "perihelion_time": "2458115.173526867215",
        "mean_anomaly": "351.7767424076715",
        "mean_motion": ".2371624214583122",
        "equinox": "J2000",
        "orbit_class": {
            "orbit_class_type": "AMO",
            "orbit_class_description": "Near-Earth asteroid orbits similar to that of 1221 Amor",
            "orbit_class_range": "1.017 AU < q (perihelion) < 1.3 AU"
        }
    },
    "is_sentry_object": false
}